CCSDS_OMM_VERS = 2.0
CREATION_DATE  = 
ORIGINATOR     = 

OBJECT_NAME    = IDEFIX & ARIANE 42P R/B
OBJECT_ID      = 2002-021B
CENTER_NAME    = EARTH
REF_FRAME      = TEME
TIME_SYSTEM    = UTC
MEAN_ELEMENT_THEORY = SGP/SGP4

EPOCH          = 2025-12-26T20:20:32.430912
MEAN_MOTION    = 14.30960435
ECCENTRICITY   = .0012693
INCLINATION    = 98.5804
RA_OF_ASC_NODE = 295.3566
ARG_OF_PERICENTER = 45.5080
MEAN_ANOMALY   = 314.7138

EPHEMERIS_TYPE = 0
CLASSIFICATION_TYPE = U
NORAD_CAT_ID   = 27422
ELEMENT_SET_NO = 999
REV_AT_EPOCH   = 23360
BSTAR          = .14703E-3
MEAN_MOTION_DOT = .343E-5
MEAN_MOTION_DDOT = 0

CCSDS_OMM_VERS = 2.0
CREATION_DATE  = 
ORIGINATOR     = 

OBJECT_NAME    = AQUA
OBJECT_ID      = 2002-022A
CENTER_NAME    = EARTH
REF_FRAME      = TEME
TIME_SYSTEM    = UTC
MEAN_ELEMENT_THEORY = SGP/SGP4

EPOCH          = 2025-12-24T19:18:33.414624
MEAN_MOTION    = 14.61757572
ECCENTRICITY   = .00018094
INCLINATION    = 98.4055
RA_OF_ASC_NODE = 319.8810
ARG_OF_PERICENTER = 102.1365
MEAN_ANOMALY   = 317.5475

EPHEMERIS_TYPE = 0
CLASSIFICATION_TYPE = U
NORAD_CAT_ID   = 27424
ELEMENT_SET_NO = 999
REV_AT_EPOCH   = 25779
BSTAR          = .19560508E-3
MEAN_MOTION_DOT = .926E-5
MEAN_MOTION_DDOT = 0

CCSDS_OMM_VERS = 2.0
CREATION_DATE  = 
ORIGINATOR     = 

OBJECT_NAME    = CZ-4B R/B
OBJECT_ID      = 2002-024C
CENTER_NAME    = EARTH
REF_FRAME      = TEME
TIME_SYSTEM    = UTC
MEAN_ELEMENT_THEORY = SGP/SGP4

EPOCH          = 2025-12-26T19:15:57.803904
MEAN_MOTION    = 14.14530718
ECCENTRICITY   = .0049421
INCLINATION    = 98.8979
RA_OF_ASC_NODE = 49.5242
ARG_OF_PERICENTER = 229.2210
MEAN_ANOMALY   = 244.3925

EPHEMERIS_TYPE = 0
CLASSIFICATION_TYPE = U
NORAD_CAT_ID   = 27432
ELEMENT_SET_NO = 999
REV_AT_EPOCH   = 21893
BSTAR          = .43628E-4
MEAN_MOTION_DOT = .4E-6
MEAN_MOTION_DDOT = 0

CCSDS_OMM_VERS = 2.0
CREATION_DATE  = 
ORIGINATOR     = 

OBJECT_NAME    = MIDORI II (ADEOS-II)
OBJECT_ID      = 2002-056A
CENTER_NAME    = EARTH
REF_FRAME      = TEME
TIME_SYSTEM    = UTC
MEAN_ELEMENT_THEORY = SGP/SGP4

EPOCH          = 2025-12-26T20:34:14.628000
MEAN_MOTION    = 14.29215279
ECCENTRICITY   = .0000897
INCLINATION    = 98.7656
RA_OF_ASC_NODE = 313.8888
ARG_OF_PERICENTER = 145.2130
MEAN_ANOMALY   = 214.9111

EPHEMERIS_TYPE = 0
CLASSIFICATION_TYPE = U
NORAD_CAT_ID   = 27597
ELEMENT_SET_NO = 999
REV_AT_EPOCH   = 19989
BSTAR          = .1518E-3
MEAN_MOTION_DOT = .34E-5
MEAN_MOTION_DDOT = 0

CCSDS_OMM_VERS = 2.0
CREATION_DATE  = 
ORIGINATOR     = 

OBJECT_NAME    = H-2A R/B
OBJECT_ID      = 2002-056E
CENTER_NAME    = EARTH
REF_FRAME      = TEME
TIME_SYSTEM    = UTC
MEAN_ELEMENT_THEORY = SGP/SGP4

EPOCH          = 2025-12-26T20:21:54.338112
MEAN_MOTION    = 14.33688483
ECCENTRICITY   = .00708
INCLINATION    = 98.3086
RA_OF_ASC_NODE = 319.0450
ARG_OF_PERICENTER = 19.5980
MEAN_ANOMALY   = 43.3776

EPHEMERIS_TYPE = 0
CLASSIFICATION_TYPE = U
NORAD_CAT_ID   = 27601
ELEMENT_SET_NO = 999
REV_AT_EPOCH   = 20367
BSTAR          = .17214E-3
MEAN_MOTION_DOT = .45E-5
MEAN_MOTION_DDOT = 0

CCSDS_OMM_VERS = 2.0
CREATION_DATE  = 
ORIGINATOR     = 

OBJECT_NAME    = CZ-4B R/B
OBJECT_ID      = 2003-049C
CENTER_NAME    = EARTH
REF_FRAME      = TEME
TIME_SYSTEM    = UTC
MEAN_ELEMENT_THEORY = SGP/SGP4

EPOCH          = 2025-12-26T19:57:28.278720
MEAN_MOTION    = 14.54922734
ECCENTRICITY   = .0049398
INCLINATION    = 98.6799
RA_OF_ASC_NODE = 347.9284
ARG_OF_PERICENTER = 93.9394
MEAN_ANOMALY   = 266.7451

EPHEMERIS_TYPE = 0
CLASSIFICATION_TYPE = U
NORAD_CAT_ID   = 28059
ELEMENT_SET_NO = 999
REV_AT_EPOCH   = 17600
BSTAR          = .11871E-3
MEAN_MOTION_DOT = .468E-5
MEAN_MOTION_DDOT = 0

CCSDS_OMM_VERS = 2.0
CREATION_DATE  = 
ORIGINATOR     = 

OBJECT_NAME    = CZ-2C R/B
OBJECT_ID      = 2004-012C
CENTER_NAME    = EARTH
REF_FRAME      = TEME
TIME_SYSTEM    = UTC
MEAN_ELEMENT_THEORY = SGP/SGP4

EPOCH          = 2025-12-26T16:39:54.785376
MEAN_MOTION    = 15.56562706
ECCENTRICITY   = .0016637
INCLINATION    = 97.7395
RA_OF_ASC_NODE = 54.4770
ARG_OF_PERICENTER = 216.1735
MEAN_ANOMALY   = 143.8395

EPHEMERIS_TYPE = 0
CLASSIFICATION_TYPE = U
NORAD_CAT_ID   = 28222
ELEMENT_SET_NO = 999
REV_AT_EPOCH   = 19289
BSTAR          = .57533E-3
MEAN_MOTION_DOT = .41139E-3
MEAN_MOTION_DDOT = 0

CCSDS_OMM_VERS = 2.0
CREATION_DATE  = 
ORIGINATOR     = 

OBJECT_NAME    = SL-16 R/B
OBJECT_ID      = 2004-021B
CENTER_NAME    = EARTH
REF_FRAME      = TEME
TIME_SYSTEM    = UTC
MEAN_ELEMENT_THEORY = SGP/SGP4

EPOCH          = 2025-12-26T11:33:10.281600
MEAN_MOTION    = 14.14580389
ECCENTRICITY   = .0004538
INCLINATION    = 71.0004
RA_OF_ASC_NODE = 26.1276
ARG_OF_PERICENTER = 176.8054
MEAN_ANOMALY   = 183.3098

EPHEMERIS_TYPE = 0
CLASSIFICATION_TYPE = U
NORAD_CAT_ID   = 28353
ELEMENT_SET_NO = 999
REV_AT_EPOCH   = 11248
BSTAR          = .13503E-3
MEAN_MOTION_DOT = .212E-5
MEAN_MOTION_DDOT = 0

CCSDS_OMM_VERS = 2.0
CREATION_DATE  = 
ORIGINATOR     = 

OBJECT_NAME    = CZ-4B R/B
OBJECT_ID      = 2004-035C
CENTER_NAME    = EARTH
REF_FRAME      = TEME
TIME_SYSTEM    = UTC
MEAN_ELEMENT_THEORY = SGP/SGP4

EPOCH          = 2025-12-26T20:13:07.427712
MEAN_MOTION    = 15.27600312
ECCENTRICITY   = .0031848
INCLINATION    = 97.3597
RA_OF_ASC_NODE = 30.9988
ARG_OF_PERICENTER = 225.0435
MEAN_ANOMALY   = 134.8222

EPHEMERIS_TYPE = 0
CLASSIFICATION_TYPE = U
NORAD_CAT_ID   = 28415
ELEMENT_SET_NO = 999
REV_AT_EPOCH   = 16878
BSTAR          = .3313E-3
MEAN_MOTION_DOT = .9001E-4
MEAN_MOTION_DDOT = 0

CCSDS_OMM_VERS = 2.0
CREATION_DATE  = 
ORIGINATOR     = 

OBJECT_NAME    = CZ-2C R/B
OBJECT_ID      = 2004-046B
CENTER_NAME    = EARTH
REF_FRAME      = TEME
TIME_SYSTEM    = UTC
MEAN_ELEMENT_THEORY = SGP/SGP4

EPOCH          = 2025-12-26T16:51:20.998368
MEAN_MOTION    = 14.26949181
ECCENTRICITY   = .0139808
INCLINATION    = 98.1997
RA_OF_ASC_NODE = 275.2130
ARG_OF_PERICENTER = 11.2264
MEAN_ANOMALY   = 349.1983

EPHEMERIS_TYPE = 0
CLASSIFICATION_TYPE = U
NORAD_CAT_ID   = 28480
ELEMENT_SET_NO = 999
REV_AT_EPOCH   = 9809
BSTAR          = .13342E-3
MEAN_MOTION_DOT = .318E-5
MEAN_MOTION_DDOT = 0

CCSDS_OMM_VERS = 2.0
CREATION_DATE  = 
ORIGINATOR     = 

OBJECT_NAME    = ARIANE 5 R/B
OBJECT_ID      = 2004-049H
CENTER_NAME    = EARTH
REF_FRAME      = TEME
TIME_SYSTEM    = UTC
MEAN_ELEMENT_THEORY = SGP/SGP4

EPOCH          = 2025-12-26T17:38:18.869568
MEAN_MOTION    = 14.85048354
ECCENTRICITY   = .008356
INCLINATION    = 98.2529
RA_OF_ASC_NODE = 161.5189
ARG_OF_PERICENTER = 227.0086
MEAN_ANOMALY   = 132.4103

EPHEMERIS_TYPE = 0
CLASSIFICATION_TYPE = U
NORAD_CAT_ID   = 28499
ELEMENT_SET_NO = 999
REV_AT_EPOCH   = 13496
BSTAR          = .1635E-3
MEAN_MOTION_DOT = .1421E-4
MEAN_MOTION_DDOT = 0

CCSDS_OMM_VERS = 2.0
CREATION_DATE  = 
ORIGINATOR     = 

OBJECT_NAME    = CZ-2D R/B
OBJECT_ID      = 2005-024B
CENTER_NAME    = EARTH
REF_FRAME      = TEME
TIME_SYSTEM    = UTC
MEAN_ELEMENT_THEORY = SGP/SGP4

EPOCH          = 2025-12-26T18:19:03.790848
MEAN_MOTION    = 15.54010789
ECCENTRICITY   = .0003324
INCLINATION    = 97.3631
RA_OF_ASC_NODE = 8.5851
ARG_OF_PERICENTER = 305.5667
MEAN_ANOMALY   = 54.5276

EPHEMERIS_TYPE = 0
CLASSIFICATION_TYPE = U
NORAD_CAT_ID   = 28738
ELEMENT_SET_NO = 999
REV_AT_EPOCH   = 12843
BSTAR          = .52909E-3
MEAN_MOTION_DOT = .34219E-3
MEAN_MOTION_DDOT = 0

