IDEFIX & ARIANE 42P R/B 
1 27422U 02021B   25360.84759758  .00000343  00000+0  14703-3 0  9998
2 27422  98.5804 295.3566 0012693  45.5080 314.7138 14.30960435233608
AQUA                    
1 27424U 02022A   25358.80455341  .00000926  00000+0  19561-3 0  9999
2 27424  98.4055 319.8810 0001809 102.1365 317.5475 14.61757572257795
CZ-4B R/B               
1 27432U 02024C   25360.80275236  .00000040  00000+0  43628-4 0  9995
2 27432  98.8979  49.5242 0049421 229.2210 244.3925 14.14530718218930
MIDORI II (ADEOS-II)    
1 27597U 02056A   25360.85711375  .00000340  00000+0  15180-3 0  9990
2 27597  98.7656 313.8888 0000897 145.2130 214.9111 14.29215279199899
H-2A R/B                
1 27601U 02056E   25360.84854558  .00000450  00000+0  17214-3 0  9998
2 27601  98.3086 319.0450 0070800  19.5980  43.3776 14.33688483203677
CZ-4B R/B               
1 28059U 03049C   25360.83157730  .00000468  00000+0  11871-3 0  9998
2 28059  98.6799 347.9284 0049398  93.9394 266.7451 14.54922734176007
CZ-2C R/B               
1 28222U 04012C   25360.69438409  .00041139  00000+0  57533-3 0  9995
2 28222  97.7395  54.4770 0016637 216.1735 143.8395 15.56562706192898
SL-16 R/B               
1 28353U 04021B   25360.48136900  .00000212  00000+0  13503-3 0  9994
2 28353  71.0004  26.1276 0004538 176.8054 183.3098 14.14580389112481
CZ-4B R/B               
1 28415U 04035C   25360.84244708  .00009001  00000+0  33130-3 0  9997
2 28415  97.3597  30.9988 0031848 225.0435 134.8222 15.27600312168783
CZ-2C R/B               
1 28480U 04046B   25360.70232637  .00000318  00000+0  13342-3 0  9999
2 28480  98.1997 275.2130 0139808  11.2264 349.1983 14.26949181 98090
ARIANE 5 R/B            
1 28499U 04049H   25360.73494062  .00001421  00000+0  16350-3 0  9995
2 28499  98.2529 161.5189 0083560 227.0086 132.4103 14.85048354134966
CZ-2D R/B               
1 28738U 05024B   25360.76323832  .00034219  00000+0  52909-3 0  9995
2 28738  97.3631   8.5851 0003324 305.5667  54.5276 15.54010789128437
